
# Worst residual: 7.82 km
# MJD 60066.000000 (2023 May  2  0:00)
S509559 = prob Vela
1 89990U 00000AAJ 23122.49919926  .00000000  00000-0  00000-0 0 18141
2 89990 030.7793 025.6855 4601210 068.8917 138.7926 00.21310319    06

# Worst residual: 14.97 km
# MJD 60067.000000 (2023 May  3  0:00)
S509559 = prob Vela
1 89990U 00000AAJ 23123.49919926  .00000000  00000-0  00000-0 0 18142
2 89990 030.7822 025.6728 4595878 068.7872 215.7644 00.21300041    03

# Worst residual: 19.38 km
# MJD 60068.000000 (2023 May  4  0:00)
S509559 = prob Vela
1 89990U 00000AAJ 23124.49919926  .00000000  00000-0  00000-0 0 18143
2 89990 030.7851 025.6604 4597078 068.5402 292.7999 00.21231482    09

# Worst residual: 25.06 km
# MJD 60069.000000 (2023 May  5  0:00)
S509559 = prob Vela
1 89990U 00000AAJ 23125.49919926  .00000000  00000-0  00000-0 0 18144
2 89990 030.7773 025.6520 4595824 068.7566 009.1855 00.21293657    02

# Worst residual: 21.38 km
# MJD 60070.000000 (2023 May  6  0:00)
S509559 = prob Vela
1 89990U 00000AAJ 23126.49919926  .00000000  00000-0  00000-0 0 18145
2 89990 030.7936 025.6323 4592770 068.8943 085.7152 00.21291150    07

# Worst residual: 22.25 km
# MJD 60071.000000 (2023 May  7  0:00)
S509559 = prob Vela
1 89990U 00000AAJ 23127.49919926  .00000000  00000-0  00000-0 0 18146
2 89990 030.8199 025.6643 4608417 069.2291 161.3688 00.21245697    01

# Worst residual: 12.50 km
# MJD 60072.000000 (2023 May  8  0:00)
S509559 = prob Vela
1 89990U 00000AAJ 23128.49919926  .00000000  00000-0  00000-0 0 18147
2 89990 030.8297 025.6893 4636178 069.4323 237.5043 00.21309187    06

# Worst residual: 45.91 km
# MJD 60073.000000 (2023 May  9  0:00)
S509559 = prob Vela
1 89990U 00000AAJ 23129.49919926  .00000000  00000-0  00000-0 0 18148
2 89990 030.8318 025.6864 4658935 069.3668 314.5064 00.21263534    08

# Worst residual: 45.27 km
# MJD 60074.000000 (2023 May 10  0:00)
S509559 = prob Vela
1 89990U 00000AAJ 23130.49919926  .00000000  00000-0  00000-0 0 18140
2 89990 030.8351 025.6820 4668155 069.7375 030.8913 00.21247115    09

# Worst residual: 12.95 km
# MJD 60075.000000 (2023 May 11  0:00)
S509559 = prob Vela
1 89990U 00000AAJ 23131.49919926  .00000000  00000-0  00000-0 0 18141
2 89990 030.8356 025.6744 4646547 069.6019 108.0149 00.21344134    02

# Worst residual: 7.52 km
# MJD 60076.000000 (2023 May 12  0:00)
S509559 = prob Vela
1 89990U 00000AAJ 23132.49919926  .00000000  00000-0  00000-0 0 18142
2 89990 030.8370 025.6577 4639419 069.5390 185.0659 00.21345773    04

# Worst residual: 15.21 km
# MJD 60077.000000 (2023 May 13  0:00)
S509559 = prob Vela
1 89990U 00000AAJ 23133.49919926  .00000000  00000-0  00000-0 0 18143
2 89990 030.8402 025.6010 4619995 069.5086 261.8376 00.21299660    03

# Worst residual: 14.21 km
# MJD 60078.000000 (2023 May 14  0:00)
S509559 = prob Vela
1 89990U 00000AAJ 23134.49919926  .00000000  00000-0  00000-0 0 18144
2 89990 030.8561 025.5618 4604881 069.5839 338.3022 00.21333642    03

# Worst residual: 12.32 km
# MJD 60079.000000 (2023 May 15  0:00)
S509559 = prob Vela
1 89990U 00000AAJ 23135.49919926  .00000000  00000-0  00000-0 0 18145
2 89990 030.8593 025.5547 4606346 069.5903 055.0222 00.21333875    02

# Worst residual: 4.46 km
# MJD 60080.000000 (2023 May 16  0:00)
S509559 = prob Vela
1 89990U 00000AAJ 23136.49919926  .00000000  00000-0  00000-0 0 18146
2 89990 030.8637 025.5475 4612750 069.7221 131.4525 00.21305005    01

# Worst residual: 9.90 km
# MJD 60081.000000 (2023 May 17  0:00)
S509559 = prob Vela
1 89990U 00000AAJ 23137.49919926  .00000000  00000-0  00000-0 0 18147
2 89990 030.8687 025.5450 4615418 069.7237 208.1447 00.21308760    06

# Worst residual: 26.51 km
# MJD 60082.000000 (2023 May 18  0:00)
S509559 = prob Vela
1 89990U 00000AAJ 23138.49919926  .00000000  00000-0  00000-0 0 18148
2 89990 030.8729 025.5420 4623557 069.5034 285.2812 00.21257408    00

# Worst residual: 37.49 km
# MJD 60083.000000 (2023 May 19  0:00)
S509559 = prob Vela
1 89990U 00000AAJ 23139.49919926  .00000000  00000-0  00000-0 0 18149
2 89990 030.8664 025.5362 4643112 069.6973 001.7874 00.21226472    01

# Worst residual: 3.51 km
# MJD 60084.000000 (2023 May 20  0:00)
S509559 = prob Vela
1 89990U 00000AAJ 23140.49919926  .00000000  00000-0  00000-0 0 18141
2 89990 030.8737 025.5203 4621345 069.7507 078.5733 00.21329300    04

# Worst residual: 5.81 km
# MJD 60085.000000 (2023 May 21  0:00)
S509559 = prob Vela
1 89990U 00000AAJ 23141.49919926  .00000000  00000-0  00000-0 0 18142
2 89990 030.8758 025.5092 4622514 069.8440 155.1406 00.21319530    02

# Worst residual: 5.61 km
# MJD 60086.000000 (2023 May 22  0:00)
S509559 = prob Vela
1 89990U 00000AAJ 23142.49919926  .00000000  00000-0  00000-0 0 18143
2 89990 030.8800 025.5039 4620886 069.8945 231.7556 00.21314086    09

# Worst residual: 38.84 km
# MJD 60087.000000 (2023 May 23  0:00)
S509559 = prob Vela
1 89990U 00000AAJ 23143.49919926  .00000000  00000-0  00000-0 0 18144
2 89990 030.8823 025.4996 4628941 069.7226 308.7402 00.21249843    09

# Worst residual: 45.58 km
# MJD 60088.000000 (2023 May 24  0:00)
S509559 = prob Vela
1 89990U 00000AAJ 23144.49919926  .00000000  00000-0  00000-0 0 18145
2 89990 030.8879 025.4958 4646268 070.0842 025.0400 00.21197025    00

# Worst residual: 13.05 km
# MJD 60089.000000 (2023 May 25  0:00)
S509559 = prob Vela
1 89990U 00000AAJ 23145.49919926  .00000000  00000-0  00000-0 0 18146
2 89990 030.8850 025.4899 4619242 070.0212 101.9694 00.21297490    02

# Worst residual: 1.88 km
# MJD 60090.000000 (2023 May 26  0:00)
S509559 = prob Vela
1 89990U 00000AAJ 23146.49919926  .00000000  00000-0  00000-0 0 18147
2 89990 030.8880 025.4802 4617878 069.9728 178.7919 00.21310058    09

# Worst residual: 2.69 km
# MJD 60091.000000 (2023 May 27  0:00)
S509559 = prob Vela
1 89990U 00000AAJ 23147.49919926  .00000000  00000-0  00000-0 0 18148
2 89990 030.8919 025.4761 4618084 069.9817 255.4796 00.21307256    07

# Worst residual: 7.83 km
# MJD 60092.000000 (2023 May 28  0:00)
S509559 = prob Vela
1 89990U 00000AAJ 23148.49919926  .00000000  00000-0  00000-0 0 18149
2 89990 030.8944 025.4713 4621838 070.0018 332.1567 00.21295495    09

# Worst residual: 2.78 km
# MJD 60093.000000 (2023 May 29  0:00)
S509559 = prob Vela
1 89990U 00000AAJ 23149.49919926  .00000000  00000-0  00000-0 0 18140
2 89990 030.8992 025.4636 4620825 070.1442 048.7268 00.21301185    05

# Worst residual: 4.71 km
# MJD 60094.000000 (2023 May 30  0:00)
S509559 = prob Vela
1 89990U 00000AAJ 23150.49919926  .00000000  00000-0  00000-0 0 18142
2 89990 030.9099 025.4604 4623826 070.0678 125.5113 00.21328376    07

# Worst residual: 12.25 km
# MJD 60095.000000 (2023 May 31  0:00)
S509559 = prob Vela
1 89990U 00000AAJ 23151.49919926  .00000000  00000-0  00000-0 0 18143
2 89990 030.9137 025.4512 4621466 070.0031 202.4639 00.21328325    01
